IRIDIUM 64 [+]          
1 25287U 98021C   17241.41354772  .00000127  00000-0  38165-4 0  9999
2 25287  86.4001 193.3460 0002267  80.3775 279.7677 14.34216057 15495
IRIDIUM 65 [+]          
1 25288U 98021D   17241.41986992  .00000131  00000-0  39572-4 0  9993
2 25288  86.3999 193.2455 0002446  86.1805 273.9670 14.34216516 15513
IRIDIUM 66 [+]          
1 25289U 98021E   17241.35646343  .00000134  00000-0  40920-4 0  9992
2 25289  86.3999 193.1749 0002332  86.5260 273.6202 14.34216126 15494
IRIDIUM 67 [+]          
1 25290U 98021F   17241.36280980  .00000029  00000-0  34322-5 0  9999
2 25290  86.4000 193.3097 0002298  85.0176 275.1282 14.34215415 15517
IRIDIUM 68 [+]          
1 25291U 98021G   17241.36914998  .00000129  00000-0  38839-4 0  9990
2 25291  86.4001 193.4268 0002327  83.7911 276.3549 14.34215889 15496
IRIDIUM 69 [-]          
1 25319U 98026A   17241.48943015  .00000135  00000-0  37551-4 0  9998
2 25319  86.4002 214.8709 0003720  64.2060 295.9522 14.38685908 13575
IRIDIUM 71 [-]          
1 25320U 98026B   17241.45863395  .00000130  00000-0  35610-4 0  9998
2 25320  86.3991 210.7411 0004317  95.5936 264.5755 14.39098090 14000
IRIDIUM 70 [+]          
1 25342U 98032A   17241.41924855  .00000018  00000-0 -58347-6 0  9994
2 25342  86.4005 193.6513 0002289  84.5588  43.2794 14.34215532  9590
IRIDIUM 72 [+]          
1 25343U 98032B   17241.38185244  .00000131  00000-0  39822-4 0  9992
2 25343  86.4001 193.2741 0002328  85.7910 274.3551 14.34215641  9591
IRIDIUM 73 [-]          
1 25344U 98032C   17241.34154854  .00000128  00000-0  28434-4 0  9995
2 25344  86.4480 172.0501 0002367 101.2605 258.8865 14.49054071 18140
IRIDIUM 75 [+]          
1 25346U 98032E   17241.38818145  .00000127  00000-0  38382-4 0  9993
2 25346  86.4003 193.5262 0002305  85.4652 274.6807 14.34215887 10166
IRIDIUM 3 [+]           
1 25431U 98048A   17241.46353338 -.00000054  00000-0 -26267-4 0  9992
2 25431  86.3955 225.0617 0002350  87.1649  22.6891 14.34214541996114
IRIDIUM 76 [+]          
1 25432U 98048B   17241.46134052  .00000052  00000-0  11479-4 0  9998
2 25432  86.3953 224.8145 0002187  93.9986 266.1460 14.34215383996092
IRIDIUM 82 [-]          
1 25467U 98051A   17241.37696795  .00001494  00000-0  11068-3 0  9991
2 25467  86.4048 347.1310 0184950 129.8312 231.9358 14.89369716997749
IRIDIUM 81 [+]          
1 25468U 98051B   17241.34758368  .00000175  00000-0  50633-4 0  9991
2 25468  86.4275 351.2199 0001895  99.7375 260.4037 14.38616463993366
IRIDIUM 80 [+]          
1 25469U 98051C   17241.36605347  .00000172  00000-0  54327-4 0  9993
2 25469  86.4004 351.4977 0002612  80.9314 337.7438 14.34217217993325
IRIDIUM 77 [+]          
1 25471U 98051E   17241.50277441  .00350388 -10967-5  10594-2 0  9994
2 25471  86.4159 350.7792 0356878 348.6891  66.0204 15.34193303998616
IRIDIUM 2 [-]           
1 25527U 98066A   17241.36159564  .00001526  00000-0  75960-4 0  9999
2 25527  85.5332 349.0528 0009456 167.3653 192.7825 15.16690398 28962
IRIDIUM 86 [+]          
1 25528U 98066B   17241.37013108  .00000163  00000-0  51262-4 0  9999
2 25528  86.3974 319.2031 0002447  96.9186 263.2288 14.34221686989853
IRIDIUM 84 [+]          
1 25530U 98066D   17241.26230727  .00000169  00000-0  53394-4 0  9992
2 25530  86.3976 319.4143 0002243  96.5908 263.5543 14.34221568987478
IRIDIUM 83 [+]          
1 25531U 98066E   17241.50332327  .00000167  00000-0  52743-4 0  9994
2 25531  86.3979 319.4421 0002213  94.1026 266.0422 14.34221636984863
IRIDIUM 20 [+]          
1 25577U 98074A   17241.42324188 -.00000030  00000-0 -17680-4 0  9992
2 25577  86.3952 224.7507 0002261  84.1967 275.9486 14.34215493978937
IRIDIUM 11 [+]          
1 25578U 98074B   17241.45715285 -.00000042  00000-0 -22198-4 0  9991
2 25578  86.3951 224.9374 0002315  82.4669  27.1424 14.34214874987909
IRIDIUM 14 [+]          
1 25777U 99032A   17241.40719792  .00000129  00000-0  39118-4 0  9993
2 25777  86.4002 193.3483 0002421  87.4154 272.7318 14.34216451965178
IRIDIUM 21 [+]          
1 25778U 99032B   17241.37550062  .00000127  00000-0  38167-4 0  9994
2 25778  86.4000 193.3792 0002160  86.4297 273.7146 14.34215810958605
IRIDIUM 91 [+]          
1 27372U 02005A   17241.50570486  .00000017  00000-0 -10667-5 0  9992
2 27372  86.3927 256.5055 0002315 102.8534  10.7341 14.34220366822133
IRIDIUM 90 [S]          
1 27373U 02005B   17241.35146794  .00000167  00000-0  43959-4 0  9991
2 27373  86.4489 319.4929 0002387  98.3223 261.8249 14.42958754821908
IRIDIUM 94 [+]          
1 27374U 02005C   17241.47691552 -.00000074  00000-0 -33522-4 0  9996
2 27374  86.3952 225.0609 0002233 102.3540  11.0477 14.34213935826457
IRIDIUM 95 [+]          
1 27375U 02005D   17241.45200916 -.00000043  00000-0 -22532-4 0  9990
2 27375  86.3924 256.5486 0001740 111.5964 248.5417 14.34219723821416
IRIDIUM 96 [+]          
1 27376U 02005E   17241.49981912  .00000091  00000-0  25267-4 0  9996
2 27376  86.3970 288.5902 0001195 107.2389 252.8937 14.34220160826623
IRIDIUM 97 [+]          
1 27450U 02031A   17241.18903623  .00000071  00000-0  18463-4 0  9995
2 27450  86.3939 288.3703 0002242  87.4666 272.6786 14.34220207800692
IRIDIUM 98 [+]          
1 27451U 02031B   17241.44509696  .00000162  00000-0  50915-4 0  9996
2 27451  86.3998 351.5574 0002725  95.4273 338.4309 14.34216999801805
